OBJECT_NAME,OBJECT_ID,EPOCH,MEAN_MOTION,ECCENTRICITY,INCLINATION,RA_OF_ASC_NODE,ARG_OF_PERICENTER,MEAN_ANOMALY,EPHEMERIS_TYPE,CLASSIFICATION_TYPE,NORAD_CAT_ID,ELEMENT_SET_NO,REV_AT_EPOCH,BSTAR,MEAN_MOTION_DOT,MEAN_MOTION_DDOT
STARLINK-33577,2025-015E,2026-07-07T04:47:06.566784,15.31715254,.00013845,53.1571,126.2814,123.1424,236.9710,0,U,62762,999,8279,.89722705E-3,.27593E-3,0
STARLINK-33597,2025-015F,2026-07-06T23:59:36.675456,15.31695940,.00014411,53.1565,127.8766,49.3458,310.7669,0,U,62763,999,8275,.68049408E-3,.20808E-3,0
STARLINK-33579,2025-015G,2026-07-07T04:54:47.439936,15.31725980,.00015324,53.1582,126.3161,122.3701,237.7449,0,U,62764,999,8279,.9626276E-3,.2965E-3,0
STARLINK-33592,2025-015H,2026-07-07T05:55:09.643296,15.34411177,.00012509,53.1574,125.1575,65.2351,294.8781,0,U,62765,999,8268,.88231204E-3,.29562E-3,0
STARLINK-33595,2025-015J,2026-07-07T05:58:11.085888,15.34428541,.00014581,53.1561,125.1737,135.9806,224.1313,0,U,62766,999,8281,.10949274E-2,.36833E-3,0
STARLINK-33572,2025-015K,2026-07-07T05:37:04.937952,15.34477672,.00007959,53.1571,125.7905,80.5021,279.6071,0,U,62767,999,8274,.17117917E-2,.58051E-3,0
STARLINK-33601,2025-015L,2026-07-07T06:19:23.447712,15.34439279,.000131,53.1573,125.2632,123.9791,236.1336,0,U,62768,999,8281,.12695692E-2,.42817E-3,0
STARLINK-33569,2025-015M,2026-07-07T05:40:08.209632,15.34426268,.00014162,53.1579,125.8031,53.1134,306.9998,0,U,62769,999,8280,.10895216E-2,.36646E-3,0
STARLINK-33594,2025-015N,2026-07-07T05:01:30.844128,15.31719366,.0001375,53.1595,126.3412,82.2464,277.8693,0,U,62770,999,8279,.77426789E-3,.23752E-3,0
STARLINK-33598,2025-015P,2026-07-07T05:21:55.850112,15.34461542,.00010382,53.1574,125.7172,123.2046,236.9056,0,U,62771,999,8280,.14409576E-2,.48721E-3,0
STARLINK-33600,2025-015Q,2026-07-06T03:44:49.835040,15.31657292,.00014895,53.1582,131.8557,119.7492,240.3658,0,U,62772,999,8262,.60717761E-3,.18498E-3,0
STARLINK-33567,2025-015R,2026-07-07T05:15:53.850528,15.34431733,.00012407,53.1583,125.6950,93.8313,266.2831,0,U,62773,999,8280,.12356773E-2,.41647E-3,0
STARLINK-33574,2025-015S,2026-07-07T06:07:16.303584,15.34430366,.00011931,53.1577,125.2130,94.1930,265.9209,0,U,62774,999,8253,.74504329E-3,.24904E-3,0
STARLINK-33576,2025-015T,2026-07-06T23:49:05.321280,15.34380526,.00012956,53.1566,126.4186,100.1513,259.9636,0,U,62775,999,8271,.83304932E-3,.27857E-3,0
STARLINK-33570,2025-015U,2026-07-07T06:16:22.088928,15.34409219,.00013357,53.1576,125.2482,81.1556,278.9598,0,U,62776,999,8275,.68633363E-3,.2289E-3,0
STARLINK-33591,2025-015V,2026-07-07T04:51:38.470176,15.34394710,.00013134,53.1584,125.5926,86.7308,273.3845,0,U,62777,999,8280,.50360364E-3,.16674E-3,0
STARLINK-33573,2025-015W,2026-07-07T05:49:13.340928,15.34436920,.00014957,53.1568,125.8372,70.9399,289.1766,0,U,62778,999,8280,.12593624E-2,.42465E-3,0
STARLINK-33568,2025-015X,2026-07-07T02:38:36.412224,15.34407816,.00011928,53.1577,126.4349,86.3568,273.7571,0,U,62779,999,8262,.91091961E-3,.30534E-3,0
STARLINK-33593,2025-015Y,2026-07-07T14:35:37.208256,15.34365918,.00013856,53.1583,123.8528,72.0526,288.0627,0,U,62780,999,8286,.66524645E-3,.22142E-3,0
STARLINK-33588,2025-015Z,2026-07-07T05:09:01.006272,15.34441018,.00016067,53.1587,123.4755,51.3963,308.7184,0,U,62781,999,8283,.13597103E-2,.45906E-3,0
STARLINK-33585,2025-015AA,2026-07-07T06:14:21.353568,15.31692389,.00015485,53.1561,125.9486,79.5456,280.5720,0,U,62782,999,8252,.54851495E-3,.1669E-3,0
STARLINK-33582,2025-015AB,2026-07-07T05:42:43.178400,15.44350207,.00050816,53.1529,122.2400,59.8243,300.3266,0,U,62783,999,8278,.18426278E-2,.86915E-3,0
STARLINK-33581,2025-015AC,2026-07-07T05:55:15.904704,15.31717896,.00012721,53.1575,126.5761,58.8707,301.2419,0,U,62784,999,8279,.54238082E-3,.16512E-3,0
QIANFAN-55,2025-016A,2026-07-07T13:27:00.305280,13.51009829,.00191145,88.9726,81.7651,107.2087,253.1158,0,U,62785,999,7511,.13752652E-3,.101E-5,0
QIANFAN-56,2025-016B,2026-07-07T13:50:44.352672,13.51008375,.00177039,88.9700,81.5446,109.0408,251.2663,0,U,62786,999,7516,.14553315E-3,.106E-5,0
QIANFAN-57,2025-016C,2026-07-07T12:51:23.714496,13.51008432,.0001415,88.9731,81.7668,64.8278,295.3020,0,U,62787,999,7512,.12240128E-3,.91E-6,0
QIANFAN-58,2025-016D,2026-07-07T13:56:26.988288,13.51023154,.00157578,88.9701,81.5306,101.7780,258.5140,0,U,62788,999,7517,.1532053E-3,.111E-5,0
QIANFAN-59,2025-016E,2026-07-07T12:45:25.167456,13.51017178,.00160634,88.9724,81.6583,105.3847,254.9080,0,U,62789,999,7516,.12204346E-3,.91E-6,0
QIANFAN-60,2025-016F,2026-07-07T13:33:00.568224,13.51004850,.00176743,88.9705,81.5869,102.4407,257.8723,0,U,62790,999,7515,.13393318E-3,.99E-6,0
QIANFAN-61,2025-016G,2026-07-07T12:33:41.241600,13.51012294,.0016614,88.9772,81.8942,101.8096,258.4920,0,U,62791,999,7516,.12965418E-3,.96E-6,0
