STARLINK-33577          
1 62762U 25015E   26188.19938156  .00027593  00000+0  89723-3 0  9990
2 62762  53.1571 126.2814 0001384 123.1424 236.9710 15.31715254 82792
STARLINK-33597          
1 62763U 25015F   26187.99973004  .00020808  00000+0  68049-3 0  9999
2 62763  53.1565 127.8766 0001441  49.3458 310.7669 15.31695940 82758
STARLINK-33579          
1 62764U 25015G   26188.20471574  .00029650  00000+0  96263-3 0  9993
2 62764  53.1582 126.3161 0001532 122.3701 237.7449 15.31725980 82791
STARLINK-33592          
1 62765U 25015H   26188.24663939  .00029562  00000+0  88231-3 0  9994
2 62765  53.1574 125.1575 0001250  65.2351 294.8781 15.34411177 82686
STARLINK-33595          
1 62766U 25015J   26188.24873942  .00036833  00000+0  10949-2 0  9991
2 62766  53.1561 125.1737 0001458 135.9806 224.1313 15.34428541 82818
STARLINK-33572          
1 62767U 25015K   26188.23408493  .00058051  00000+0  17118-2 0  9997
2 62767  53.1571 125.7905 0000795  80.5021 279.6071 15.34477672 82747
STARLINK-33601          
1 62768U 25015L   26188.26346583  .00042817  00000+0  12696-2 0  9991
2 62768  53.1573 125.2632 0001310 123.9791 236.1336 15.34439279 82813
STARLINK-33569          
1 62769U 25015M   26188.23620613  .00036646  00000+0  10895-2 0  9990
2 62769  53.1579 125.8031 0001416  53.1134 306.9998 15.34426268 82804
STARLINK-33594          
1 62770U 25015N   26188.20938477  .00023752  00000+0  77427-3 0  9998
2 62770  53.1595 126.3412 0001375  82.2464 277.8693 15.31719366 82793
STARLINK-33598          
1 62771U 25015P   26188.22356308  .00048721  00000+0  14410-2 0  9993
2 62771  53.1574 125.7172 0001038 123.2046 236.9056 15.34461542 82809
STARLINK-33600          
1 62772U 25015Q   26187.15613235  .00018498  00000+0  60718-3 0  9991
2 62772  53.1582 131.8557 0001489 119.7492 240.3658 15.31657292 82622
STARLINK-33567          
1 62773U 25015R   26188.21937327  .00041647  00000+0  12357-2 0  9998
2 62773  53.1583 125.6950 0001240  93.8313 266.2831 15.34431733 82804
STARLINK-33574          
1 62774U 25015S   26188.25504981  .00024904  00000+0  74504-3 0  9999
2 62774  53.1577 125.2130 0001193  94.1930 265.9209 15.34430366 82536
STARLINK-33576          
1 62775U 25015T   26187.99242270  .00027857  00000+0  83305-3 0  9999
2 62775  53.1566 126.4186 0001295 100.1513 259.9636 15.34380526 82716
STARLINK-33570          
1 62776U 25015U   26188.26136677  .00022890  00000+0  68633-3 0  9993
2 62776  53.1576 125.2482 0001335  81.1556 278.9598 15.34409219 82757
STARLINK-33591          
1 62777U 25015V   26188.20252859  .00016674  00000+0  50360-3 0  9990
2 62777  53.1584 125.5926 0001313  86.7308 273.3845 15.34394710 82804
STARLINK-33573          
1 62778U 25015W   26188.24251552  .00042465  00000+0  12594-2 0  9997
2 62778  53.1568 125.8372 0001495  70.9399 289.1766 15.34436920 82808
STARLINK-33568          
1 62779U 25015X   26188.11014366  .00030534  00000+0  91092-3 0  9999
2 62779  53.1577 126.4349 0001192  86.3568 273.7571 15.34407816 82628
STARLINK-33593          
1 62780U 25015Y   26188.60806954  .00022142  00000+0  66525-3 0  9996
2 62780  53.1583 123.8528 0001385  72.0526 288.0627 15.34365918 82860
STARLINK-33588          
1 62781U 25015Z   26188.21459498  .00045906  00000+0  13597-2 0  9994
2 62781  53.1587 123.4755 0001606  51.3963 308.7184 15.34441018 82835
STARLINK-33585          
1 62782U 25015AA  26188.25996937  .00016690  00000+0  54851-3 0  9990
2 62782  53.1561 125.9486 0001548  79.5456 280.5720 15.31692389 82525
STARLINK-33582          
1 62783U 25015AB  26188.23799975  .00086915  00000+0  18426-2 0  9996
2 62783  53.1529 122.2400 0005081  59.8243 300.3266 15.44350207 82785
STARLINK-33581          
1 62784U 25015AC  26188.24671186  .00016512  00000+0  54238-3 0  9999
2 62784  53.1575 126.5761 0001272  58.8707 301.2419 15.31717896 82794
QIANFAN-55              
1 62785U 25016A   26188.56042020  .00000101  00000+0  13753-3 0  9999
2 62785  88.9726  81.7651 0019114 107.2087 253.1158 13.51009829 75116
QIANFAN-56              
1 62786U 25016B   26188.57690223  .00000106  00000+0  14553-3 0  9999
2 62786  88.9700  81.5446 0017703 109.0408 251.2663 13.51008375 75168
QIANFAN-57              
1 62787U 25016C   26188.53569114  .00000091  00000+0  12240-3 0  9994
2 62787  88.9731  81.7668 0001415  64.8278 295.3020 13.51008432 75123
QIANFAN-58              
1 62788U 25016D   26188.58086792  .00000111  00000+0  15321-3 0  9992
2 62788  88.9701  81.5306 0015757 101.7780 258.5140 13.51023154 75178
QIANFAN-59              
1 62789U 25016E   26188.53154129  .00000091  00000+0  12204-3 0  9992
2 62789  88.9724  81.6583 0016063 105.3847 254.9080 13.51017178 75168
QIANFAN-60              
1 62790U 25016F   26188.56458991  .00000099  00000+0  13393-3 0  9999
2 62790  88.9705  81.5869 0017674 102.4407 257.8723 13.51004850 75152
QIANFAN-61              
1 62791U 25016G   26188.52339400  .00000096  00000+0  12965-3 0  9990
2 62791  88.9772  81.8942 0016614 101.8096 258.4920 13.51012294 75160
